[{"OBJECT_NAME":"LYNK TOWER 5","OBJECT_ID":"2024-043Z","EPOCH":"2026-03-09T22:11:51.175104","MEAN_MOTION":15.29454506,"ECCENTRICITY":0.00104056,"INCLINATION":97.5458,"RA_OF_ASC_NODE":204.7305,"ARG_OF_PERICENTER":234.6422,"MEAN_ANOMALY":125.3846,"EPHEMERIS_TYPE":0,"CLASSIFICATION_TYPE":"U","NORAD_CAT_ID":59121,"ELEMENT_SET_NO":999,"REV_AT_EPOCH":11186,"BSTAR":0.00031901545,"MEAN_MOTION_DOT":9.048e-5,"MEAN_MOTION_DDOT":0},{"OBJECT_NAME":"STARLINK-31765","OBJECT_ID":"2024-080D","EPOCH":"2026-03-09T07:06:43.298208","MEAN_MOTION":15.27581172,"ECCENTRICITY":0.0001372,"INCLINATION":43.0055,"RA_OF_ASC_NODE":36.5718,"ARG_OF_PERICENTER":264.6556,"MEAN_ANOMALY":95.4139,"EPHEMERIS_TYPE":0,"CLASSIFICATION_TYPE":"U","NORAD_CAT_ID":59604,"ELEMENT_SET_NO":999,"REV_AT_EPOCH":10451,"BSTAR":-0.00012668251,"MEAN_MOTION_DOT":-3.747e-5,"MEAN_MOTION_DDOT":0}]
